[{"OBJECT_NAME":"STARLINK-1856","OBJECT_ID":"2020-088X","EPOCH":"2026-03-10T00:00:02.999808","MEAN_MOTION":15.49188695,"ECCENTRICITY":0.0006619,"INCLINATION":53.0514,"RA_OF_ASC_NODE":271.7425,"ARG_OF_PERICENTER":153.2218,"MEAN_ANOMALY":212.208,"EPHEMERIS_TYPE":0,"CLASSIFICATION_TYPE":"U","NORAD_CAT_ID":47143,"ELEMENT_SET_NO":999,"REV_AT_EPOCH":590,"BSTAR":0.0029309484,"MEAN_MOTION_DOT":0.00165467,"MEAN_MOTION_DDOT":0},{"OBJECT_NAME":"OBJECT AC","OBJECT_ID":"2024-199AC","EPOCH":"2026-03-09T22:27:25.552224","MEAN_MOTION":15.49748624,"ECCENTRICITY":0.00048973,"INCLINATION":97.3101,"RA_OF_ASC_NODE":303.6895,"ARG_OF_PERICENTER":286.8093,"MEAN_ANOMALY":73.2621,"EPHEMERIS_TYPE":0,"CLASSIFICATION_TYPE":"U","NORAD_CAT_ID":61761,"ELEMENT_SET_NO":999,"REV_AT_EPOCH":12220,"BSTAR":0.00074432819,"MEAN_MOTION_DOT":0.00041426,"MEAN_MOTION_DDOT":0}]
